[{"OBJECT_NAME":"CENTISPACE-1 S1","OBJECT_ID":"2018-075A","EPOCH":"2026-03-09T22:27:35.656704","MEAN_MOTION":14.59881331,"ECCENTRICITY":0.00099543,"INCLINATION":97.8837,"RA_OF_ASC_NODE":97.6295,"ARG_OF_PERICENTER":76.115,"MEAN_ANOMALY":284.1158,"EPHEMERIS_TYPE":0,"CLASSIFICATION_TYPE":"U","NORAD_CAT_ID":43636,"ELEMENT_SET_NO":999,"REV_AT_EPOCH":39607,"BSTAR":0.00015220706,"MEAN_MOTION_DOT":6.85e-6,"MEAN_MOTION_DDOT":0},{"OBJECT_NAME":"SL-16 DEB","OBJECT_ID":"1992-093EV","EPOCH":"2026-03-09T21:31:33.942432","MEAN_MOTION":14.67389251,"ECCENTRICITY":0.00521641,"INCLINATION":71.2309,"RA_OF_ASC_NODE":351.7437,"ARG_OF_PERICENTER":132.7091,"MEAN_ANOMALY":292.4077,"EPHEMERIS_TYPE":0,"CLASSIFICATION_TYPE":"U","NORAD_CAT_ID":22456,"ELEMENT_SET_NO":999,"REV_AT_EPOCH":70024,"BSTAR":0.0034629976,"MEAN_MOTION_DOT":0.00019996,"MEAN_MOTION_DDOT":0}]
